{
    "week": 289,
    "satellites": [
        {
            "Name": "GSAT0101 (GALILEO-PFM)",
            "Line1": "1 37846U 11060A   24296.42559173 -.00000105  00000+0  00000+0 0  9990",
            "Line2": "2 37846  57.1230 358.0947 0001206 291.3979  68.6438  1.70475771 80971",
            "SatelliteNumber": "37846",
            "Classification": "U",
            "LaunchYear": "11",
            "LaunchNumber": "060",
            "PieceOfLaunch": "A",
            "EpochYear": "24",
            "EpochDay": 296.42559173,
            "FirstDerivativeMeanMotion": -1.05e-06,
            "SecondDerivativeMeanMotion": "00000+0",
            "BSTAR": "00000+0",
            "SetNumber": "999",
            "Inclination": 57.123,
            "RAAN": 358.0947,
            "Eccentricity": 0.0001206,
            "ArgumentOfPerigee": 291.3979,
            "MeanAnomaly": 68.6438,
            "MeanMotion": 1.70475771,
            "RevolutionNumber": "8097"
        },
        {
            "Name": "GSAT0102 (GALILEO-FM2)",
            "Line1": "1 37847U 11060B   24294.59995506 -.00000100  00000+0  00000+0 0  9996",
            "Line2": "2 37847  57.1236 358.1444 0002938 296.2482  68.8171  1.70475247 80825",
            "SatelliteNumber": "37847",
            "Classification": "U",
            "LaunchYear": "11",
            "LaunchNumber": "060",
            "PieceOfLaunch": "B",
            "EpochYear": "24",
            "EpochDay": 294.59995506,
            "FirstDerivativeMeanMotion": -1e-06,
            "SecondDerivativeMeanMotion": "00000+0",
            "BSTAR": "00000+0",
            "SetNumber": "999",
            "Inclination": 57.1236,
            "RAAN": 358.1444,
            "Eccentricity": 0.0002938,
            "ArgumentOfPerigee": 296.2482,
            "MeanAnomaly": 68.8171,
            "MeanMotion": 1.70475247,
            "RevolutionNumber": "8082"
        },
        {
            "Name": "GSAT0103 (GALILEO-FM3)",
            "Line1": "1 38857U 12055A   24295.87842790  .00000039  00000+0  00000+0 0  9991",
            "Line2": "2 38857  55.4647 118.1217 0001871 256.2467 103.7690  1.70473583 74728",
            "SatelliteNumber": "38857",
            "Classification": "U",
            "LaunchYear": "12",
            "LaunchNumber": "055",
            "PieceOfLaunch": "A",
            "EpochYear": "24",
            "EpochDay": 295.8784279,
            "FirstDerivativeMeanMotion": 3.9e-07,
            "SecondDerivativeMeanMotion": "00000+0",
            "BSTAR": "00000+0",
            "SetNumber": "999",
            "Inclination": 55.4647,
            "RAAN": 118.1217,
            "Eccentricity": 0.0001871,
            "ArgumentOfPerigee": 256.2467,
            "MeanAnomaly": 103.769,
            "MeanMotion": 1.70473583,
            "RevolutionNumber": "7472"
        },
        {
            "Name": "GSAT0201 (GALILEO 5)",
            "Line1": "1 40128U 14050A   24297.36730113 -.00000048  00000+0  00000+0 0  9994",
            "Line2": "2 40128  49.5278 297.9026 1614385 156.2566 212.1251  1.85519553 69096",
            "SatelliteNumber": "40128",
            "Classification": "U",
            "LaunchYear": "14",
            "LaunchNumber": "050",
            "PieceOfLaunch": "A",
            "EpochYear": "24",
            "EpochDay": 297.36730113,
            "FirstDerivativeMeanMotion": -4.8e-07,
            "SecondDerivativeMeanMotion": "00000+0",
            "BSTAR": "00000+0",
            "SetNumber": "999",
            "Inclination": 49.5278,
            "RAAN": 297.9026,
            "Eccentricity": 0.1614385,
            "ArgumentOfPerigee": 156.2566,
            "MeanAnomaly": 212.1251,
            "MeanMotion": 1.85519553,
            "RevolutionNumber": "6909"
        },
        {
            "Name": "GSAT0202 (GALILEO 6)",
            "Line1": "1 40129U 14050B   24296.54713736 -.00000048  00000+0  00000+0 0  9996",
            "Line2": "2 40129  49.5450 297.0143 1613612 157.0188 211.1101  1.85520265 69300",
            "SatelliteNumber": "40129",
            "Classification": "U",
            "LaunchYear": "14",
            "LaunchNumber": "050",
            "PieceOfLaunch": "B",
            "EpochYear": "24",
            "EpochDay": 296.54713736,
            "FirstDerivativeMeanMotion": -4.8e-07,
            "SecondDerivativeMeanMotion": "00000+0",
            "BSTAR": "00000+0",
            "SetNumber": "999",
            "Inclination": 49.545,
            "RAAN": 297.0143,
            "Eccentricity": 0.1613612,
            "ArgumentOfPerigee": 157.0188,
            "MeanAnomaly": 211.1101,
            "MeanMotion": 1.85520265,
            "RevolutionNumber": "6930"
        },
        {
            "Name": "GSAT0203 (GALILEO 7)",
            "Line1": "1 40544U 15017A   24297.37767335 -.00000106  00000+0  00000+0 0  9992",
            "Line2": "2 40544  56.9177 357.9855 0005459 250.5904 109.4039  1.70476199 59604",
            "SatelliteNumber": "40544",
            "Classification": "U",
            "LaunchYear": "15",
            "LaunchNumber": "017",
            "PieceOfLaunch": "A",
            "EpochYear": "24",
            "EpochDay": 297.37767335,
            "FirstDerivativeMeanMotion": -1.06e-06,
            "SecondDerivativeMeanMotion": "00000+0",
            "BSTAR": "00000+0",
            "SetNumber": "999",
            "Inclination": 56.9177,
            "RAAN": 357.9855,
            "Eccentricity": 0.0005459,
            "ArgumentOfPerigee": 250.5904,
            "MeanAnomaly": 109.4039,
            "MeanMotion": 1.70476199,
            "RevolutionNumber": "5960"
        },
        {
            "Name": "GSAT0204 (GALILEO 8)",
            "Line1": "1 40545U 15017B   24297.04564451 -.00000106  00000+0  00000+0 0  9991",
            "Line2": "2 40545  56.9236 358.0106 0005191 237.0210 122.9827  1.70475700 59607",
            "SatelliteNumber": "40545",
            "Classification": "U",
            "LaunchYear": "15",
            "LaunchNumber": "017",
            "PieceOfLaunch": "B",
            "EpochYear": "24",
            "EpochDay": 297.04564451,
            "FirstDerivativeMeanMotion": -1.06e-06,
            "SecondDerivativeMeanMotion": "00000+0",
            "BSTAR": "00000+0",
            "SetNumber": "999",
            "Inclination": 56.9236,
            "RAAN": 358.0106,
            "Eccentricity": 0.0005191,
            "ArgumentOfPerigee": 237.021,
            "MeanAnomaly": 122.9827,
            "MeanMotion": 1.704757,
            "RevolutionNumber": "5960"
        },
        {
            "Name": "GSAT0205 (GALILEO 9)",
            "Line1": "1 40889U 15045A   24296.22725989 -.00000014  00000+0  00000+0 0  9995",
            "Line2": "2 40889  55.1652 238.2608 0004325  20.5126 339.4922  1.70472927 56736",
            "SatelliteNumber": "40889",
            "Classification": "U",
            "LaunchYear": "15",
            "LaunchNumber": "045",
            "PieceOfLaunch": "A",
            "EpochYear": "24",
            "EpochDay": 296.22725989,
            "FirstDerivativeMeanMotion": -1.4e-07,
            "SecondDerivativeMeanMotion": "00000+0",
            "BSTAR": "00000+0",
            "SetNumber": "999",
            "Inclination": 55.1652,
            "RAAN": 238.2608,
            "Eccentricity": 0.0004325,
            "ArgumentOfPerigee": 20.5126,
            "MeanAnomaly": 339.4922,
            "MeanMotion": 1.70472927,
            "RevolutionNumber": "5673"
        },
        {
            "Name": "GSAT0206 (GALILEO 10)",
            "Line1": "1 40890U 15045B   24296.44790516 -.00000015  00000+0  00000+0 0  9990",
            "Line2": "2 40890  55.1635 238.2500 0002596   3.0513 356.9381  1.70472939 56763",
            "SatelliteNumber": "40890",
            "Classification": "U",
            "LaunchYear": "15",
            "LaunchNumber": "045",
            "PieceOfLaunch": "B",
            "EpochYear": "24",
            "EpochDay": 296.44790516,
            "FirstDerivativeMeanMotion": -1.5e-07,
            "SecondDerivativeMeanMotion": "00000+0",
            "BSTAR": "00000+0",
            "SetNumber": "999",
            "Inclination": 55.1635,
            "RAAN": 238.25,
            "Eccentricity": 0.0002596,
            "ArgumentOfPerigee": 3.0513,
            "MeanAnomaly": 356.9381,
            "MeanMotion": 1.70472939,
            "RevolutionNumber": "5676"
        },
        {
            "Name": "GSAT0209 (GALILEO 12)",
            "Line1": "1 41174U 15079A   24296.03100782  .00000039  00000+0  00000+0 0  9993",
            "Line2": "2 41174  55.4860 117.8278 0002146 358.7899   1.2454  1.70474199 54493",
            "SatelliteNumber": "41174",
            "Classification": "U",
            "LaunchYear": "15",
            "LaunchNumber": "079",
            "PieceOfLaunch": "A",
            "EpochYear": "24",
            "EpochDay": 296.03100782,
            "FirstDerivativeMeanMotion": 3.9e-07,
            "SecondDerivativeMeanMotion": "00000+0",
            "BSTAR": "00000+0",
            "SetNumber": "999",
            "Inclination": 55.486,
            "RAAN": 117.8278,
            "Eccentricity": 0.0002146,
            "ArgumentOfPerigee": 358.7899,
            "MeanAnomaly": 1.2454,
            "MeanMotion": 1.70474199,
            "RevolutionNumber": "5449"
        }
    ]
}